[{"OBJECT_NAME":"OBJECT Q","OBJECT_ID":"2024-205Q","EPOCH":"2026-03-09T08:02:25.893024","MEAN_MOTION":15.17509239,"ECCENTRICITY":0.00132024,"INCLINATION":97.4206,"RA_OF_ASC_NODE":142.9783,"ARG_OF_PERICENTER":51.3231,"MEAN_ANOMALY":308.9181,"EPHEMERIS_TYPE":0,"CLASSIFICATION_TYPE":"U","NORAD_CAT_ID":61908,"ELEMENT_SET_NO":999,"REV_AT_EPOCH":7319,"BSTAR":0.00052829629,"MEAN_MOTION_DOT":0.00010555,"MEAN_MOTION_DDOT":0},{"OBJECT_NAME":"STARLINK-34548","OBJECT_ID":"2025-142W","EPOCH":"2026-03-09T21:20:20.957280","MEAN_MOTION":14.99752914,"ECCENTRICITY":0.00111598,"INCLINATION":70.0032,"RA_OF_ASC_NODE":313.8354,"ARG_OF_PERICENTER":256.7432,"MEAN_ANOMALY":103.2483,"EPHEMERIS_TYPE":0,"CLASSIFICATION_TYPE":"U","NORAD_CAT_ID":64716,"ELEMENT_SET_NO":999,"REV_AT_EPOCH":3949,"BSTAR":0.071342808,"MEAN_MOTION_DOT":0.00948623,"MEAN_MOTION_DDOT":0}]
